#aV2014  5 16  0  0  0.00000000     288 DD+AD WGS84 FIT  NGA
## 1792 432000.00000000   300.00000000 56793 0.0000000000000
+   31     1  2  3  4  5  7  8  9 10 11 12 13 14 15 16 17 18
+         19 20 21 22 23 24 25 26 27 28 29 30 31 32  0  0  0
+          0  0  0  0  0  0  0  0  0  0  0  0  0  0  0  0  0
+          0  0  0  0  0  0  0  0  0  0  0  0  0  0  0  0  0
+          0  0  0  0  0  0  0  0  0  0  0  0  0  0  0  0  0
++         2  2  2  2  2  2  2  2  2  2  2  2  2  2  2  2  2
++         2  2  2  2  2  2  2  2  2  2  2  2  2  2  0  0  0
++         0  0  0  0  0  0  0  0  0  0  0  0  0  0  0  0  0
++         0  0  0  0  0  0  0  0  0  0  0  0  0  0  0  0  0
++         0  0  0  0  0  0  0  0  0  0  0  0  0  0  0  0  0
%c cc cc ccc ccc cccc cccc cccc cccc ccccc ccccc ccccc ccccc
%c cc cc ccc ccc cccc cccc cccc cccc ccccc ccccc ccccc ccccc
%f  0.0000000  0.000000000  0.00000000000  0.000000000000000
%f  0.0000000  0.000000000  0.00000000000  0.000000000000000
%i    0    0    0    0      0      0      0      0         0
%i    0    0    0    0      0      0      0      0         0
/*      NGA, ST. LOUIS,MO.                                  
/*   EPHEMERIS COMPUTED FROM  1 DAYS OF DATA                
/*   EPOCHA SMOOTHER                                       
/* CCCCCCCCCCCCCCCCCCCCCCCCCCCCCCCCCCCCCCCCCCCCCCCCCCCCCCCCC
*  2014  5 16 15 45  0.00000000
P  1 -22894.328586 -13126.063025   3579.569991     12.406277                    
V  1  -2177.400250  -4825.975265 -31224.094163      0.012511                    
P  2   8326.004334  19791.264279  16231.070161    495.667662                    
V  2 -17683.321833  -9428.584976  20454.152623      0.021656                    
P  3  -7306.412119 -14260.501098 -21727.282804    365.569163                    
V  3  22124.069376 -14407.944526   2223.943166      0.050661                    
P  4  -6370.581930  14380.267177  21076.321121      6.892497                    
V  4 -23035.847206 -15203.524241   3591.595320      0.000543                    
P  5   3181.812705  25248.693977  -7335.151063   -372.436374                    
V  5  -3945.479730   9029.880976  29676.639500      0.025094                    
P  7 -21364.778032  -2424.532126 -15739.990221    346.951529                    
V  7 -15179.313757 -13037.159548  22184.351203      0.042417                    
P  8 -15629.125413   4231.139788 -21030.557877     13.584047                    
V  8 -19732.388355 -18184.681895  10337.994266      0.000596                    
P  9 -12457.741731   9285.156764 -22101.026552    328.019283                    
V  9 -21687.118276 -15582.180210   5634.151358      0.028486                    
P 10  -8791.182500  23081.367201   8840.856700   -125.787333                    
V 10  -2306.964999 -12148.733325  28766.636128     -0.015715                    
P 11 -22195.407671 -13014.114195  -7492.269977   -489.425575                    
V 11   9851.379705  -1643.203434 -27968.833741     -0.031910                    
P 12  11547.641538  13261.341168  19908.928301    205.321901                    
V 12  -3955.950841  24990.331565 -14085.314163      0.024697                    
P 13 -25413.100099   3779.374963   6927.391312     -0.791456                    
V 13   7771.061489  -4833.533167  30398.562670     -0.038133                    
P 14  20165.451644 -14513.153338   9393.630621    172.340547                    
V 14  11724.358057  -1941.135609 -28984.859819     -0.034075                    
P 15  14798.362054   9103.148049 -20216.334979   -179.827519                    
V 15 -22270.111748  12588.394995 -10371.763946     -0.021674                    
P 16  -1455.754443 -25186.886603  -7725.967747   -218.149694                    
V 16   3499.575726  -9404.530801  30544.738217      0.019237                    
P 17 -19188.247958  15394.331490   9969.025585    -93.636171                    
V 17 -12325.302364   2520.000569 -28572.492963     -0.030889                    
P 18  15382.821451  -8080.580546 -19552.092845    319.610349                    
V 18   -392.681937  26089.308638 -11175.067895      0.023648                    
P 19 -12122.504310 -11139.638904 -21068.339787   -457.210908                    
V 19  24615.379634  -9345.430203  -8840.141528     -0.021964                    
P 20 -14391.431756 -10519.607827  19523.430852    190.074488                    
V 20   2132.581355 -25255.042000 -11855.809457      0.038623                    
P 21  20237.411082  -1163.086252 -16752.580012   -361.437750                    
V 21  17227.296895  14515.929409  18631.403325     -0.021961                    
P 22  10963.383746 -20627.686092 -12275.941218    234.662877                    
V 22   2116.611748  16292.522424 -25218.605144      0.027328                    
P 23 -20346.654091  -3984.775553  16940.199816    -20.982172                    
V 23  18581.975544 -10275.965520  19607.727291     -0.030859                    
P 24  21494.939585  15654.269637  -1109.815131    -28.467557                    
V 24  -2757.590281   1589.641942 -31557.213973     -0.005804                    
P 25  14910.841105   -727.831085  21887.906773     23.893996                    
V 25  -2120.527000  27848.213929   2494.406623      0.005648                    
P 26   2106.763219  15257.253365 -22274.575135     76.897853                    
V 26 -25296.595278   8539.661224   3851.504300     -0.118162                    
P 27    447.452975 -16302.256004 -20957.386581    -16.064204                    
V 27  24410.242160 -10607.110065   8830.842701      0.018571                    
P 28 -12591.634798  17468.399617 -14855.100700    355.214113                    
V 28   1291.255774 -19981.226902 -23771.998324      0.028911                    
P 29  24887.858571  -3867.455017   8394.310793    532.943503                    
V 29  -8936.807856   6191.165339  29535.159930      0.026655                    
P 30 -15360.048252   6232.665571 -20768.424340 999999.999999                    
V 30 -19800.824588 -17404.789336   9397.182621     -0.049357                    
P 31   2598.748927 -15883.114950  21217.233166    334.238538                    
V 31  21784.856398  15298.282067   9147.539295     -0.000543                    
P 32  -6233.280385 -22120.150464  13829.342417   -427.640645                    
V 32   5022.038324 -16667.144810 -23961.456245      0.081485                    
EOF
